[{"OBJECT_NAME":"PRISMA","OBJECT_ID":"2019-015A","EPOCH":"2026-03-09T22:24:54.380736","MEAN_MOTION":14.83635858,"ECCENTRICITY":0.00014734,"INCLINATION":97.871,"RA_OF_ASC_NODE":145.1563,"ARG_OF_PERICENTER":87.5079,"MEAN_ANOMALY":272.6304,"EPHEMERIS_TYPE":0,"CLASSIFICATION_TYPE":"U","NORAD_CAT_ID":44072,"ELEMENT_SET_NO":999,"REV_AT_EPOCH":37733,"BSTAR":9.2638496e-5,"MEAN_MOTION_DOT":7.12e-6,"MEAN_MOTION_DDOT":0},{"OBJECT_NAME":"CZ-4B DEB","OBJECT_ID":"1999-057CV","EPOCH":"2026-03-09T19:57:46.813248","MEAN_MOTION":14.85904834,"ECCENTRICITY":0.00580026,"INCLINATION":98.3828,"RA_OF_ASC_NODE":180.8293,"ARG_OF_PERICENTER":13.7764,"MEAN_ANOMALY":105.3903,"EPHEMERIS_TYPE":0,"CLASSIFICATION_TYPE":"U","NORAD_CAT_ID":26207,"ELEMENT_SET_NO":999,"REV_AT_EPOCH":36891,"BSTAR":0.0014962351,"MEAN_MOTION_DOT":0.00013405,"MEAN_MOTION_DDOT":0}]
